NORAD_CAT_ID,OBJECT_NAME,OBJECT_TYPE,EPOCH,MEAN_MOTION,ECCENTRICITY,INCLINATION,RA_OF_ASC_NODE,ARG_OF_PERICENTER,MEAN_ANOMALY,BSTAR,MEAN_MOTION_DOT,MEAN_MOTION_DDOT,TLE_LINE0,TLE_LINE1,TLE_LINE2,SEMIMAJOR_AXIS,PERIOD,APOGEE,PERIGEE,DECAYED
53933.0,STARLINK-4782,PAYLOAD,2023-09-12 17:16:56,15.08875377,0.0001103,53.2194,64.5018,89.7358,270.376,-0.00041975,-6.968e-05,0.0,0 STARLINK-4782,1 53933U 22119AZ  23255.72009590 -.00006968  00000-0 -41975-3 0  9997,2 53933  53.2194  64.5018 0001103  89.7358 270.3760 15.08875377 54328,6917.772,95.435,540.4,538.874,0.0
53933.0,STARLINK-4782,PAYLOAD,2023-09-12 18:52:20,15.08839801,0.0001306,53.2194,64.2045,89.6371,270.4771,0.00014348,1.996e-05,0.0,0 STARLINK-4782,1 53933U 22119AZ  23255.78634436  .00001996  00000-0  14348-3 0  9994,2 53933  53.2194  64.2045 0001306  89.6371 270.4771 15.08839801 54756,6917.881,95.438,540.649,538.843,0.0
53933.0,STARLINK-4782,PAYLOAD,2023-09-13 17:07:43,15.08849906,0.000121,53.2188,60.0407,86.5493,273.5637,0.00014714,2.055e-05,0.0,0 STARLINK-4782,1 53933U 22119AZ  23256.71369672  .00002055  00000-0  14714-3 0  9999,2 53933  53.2188  60.0407 0001210  86.5493 273.5637 15.08849906 54471,6917.85,95.437,540.552,538.878,0.0
53933.0,STARLINK-4782,PAYLOAD,2023-09-13 18:43:06,15.08851311,0.0001195,53.2187,59.7432,85.3738,274.739,0.00015845,2.236e-05,0.0,0 STARLINK-4782,1 53933U 22119AZ  23256.77993546  .00002236  00000-0  15845-3 0  9995,2 53933  53.2187  59.7432 0001195  85.3738 274.7390 15.08851311 54904,6917.846,95.437,540.537,538.884,0.0
53933.0,STARLINK-4782,PAYLOAD,2023-09-14 10:36:59,15.08833951,0.0001292,53.2189,56.7698,84.4961,275.6179,4.0648e-05,3.59e-06,0.0,0 STARLINK-4782,1 53933U 22119AZ  23257.44235198  .00000359  00000-0  40648-4 0  9996,2 53933  53.2189  56.7698 0001292  84.4961 275.6179 15.08833951 54582,6917.899,95.438,540.658,538.87,0.0
53933.0,STARLINK-4782,PAYLOAD,2023-09-14 16:58:32,15.08833353,0.0001181,53.2188,55.5787,91.6583,268.4545,-2.7867e-05,-7.31e-06,0.0,0 STARLINK-4782,1 53933U 22119AZ  23257.70731551 -.00000731  00000-0 -27867-4 0  9993,2 53933  53.2188  55.5787 0001181  91.6583 268.4545 15.08833353 55049,6917.901,95.438,540.583,538.949,0.0
53933.0,STARLINK-4782,PAYLOAD,2023-09-15 10:27:45,15.08847382,0.0001248,53.2205,52.3063,94.6639,265.4496,-1.6098e-06,-3.14e-06,0.0,0 STARLINK-4782,1 53933U 22119AZ  23258.43594775 -.00000314  00000-0 -16098-5 0  9991,2 53933  53.2205  52.3063 0001248  94.6639 265.4496 15.08847382 54734,6917.858,95.437,540.586,538.859,0.0
53933.0,STARLINK-4782,PAYLOAD,2023-09-15 13:38:31,15.08848455,0.0001172,53.2189,51.7155,67.2207,292.8909,2.9805e-05,1.87e-06,0.0,0 STARLINK-4782,1 53933U 22119AZ  23258.56842521  .00000187  00000-0  29805-4 0  9995,2 53933  53.2189  51.7155 0001172  67.2207 292.8909 15.08848455 55177,6917.855,95.437,540.53,538.909,0.0
53933.0,STARLINK-4782,PAYLOAD,2023-09-16 10:18:33,15.08841074,0.0001194,53.2187,47.8446,78.0847,282.0279,0.00019805,2.866e-05,0.0,0 STARLINK-4782,1 53933U 22119AZ  23259.42955099  .00002866  00000-0  19805-3 0  9990,2 53933  53.2187  47.8446 0001194  78.0847 282.0279 15.08841074 54886,6917.877,95.437,540.568,538.916,0.0
53933.0,STARLINK-4782,PAYLOAD,2023-09-16 13:29:19,15.0884031,0.0001214,53.2194,47.2532,77.9343,282.1786,0.00019482,2.814e-05,0.0,0 STARLINK-4782,1 53933U 22119AZ  23259.56203210  .00002814  00000-0  19482-3 0  9990,2 53933  53.2194  47.2532 0001214  77.9343 282.1786 15.08840310 55322,6917.879,95.438,540.584,538.905,0.0
53933.0,STARLINK-4782,PAYLOAD,2023-09-17 10:09:20,15.08847656,0.0001246,53.2187,43.3875,71.1051,289.0076,0.0001215,1.647e-05,0.0,0 STARLINK-4782,1 53933U 22119AZ  23260.42314868  .00001647  00000-0  12150-3 0  9997,2 53933  53.2187  43.3875 0001246  71.1051 289.0076 15.08847656 55450,6917.857,95.437,540.584,538.86,0.0
53933.0,STARLINK-4782,PAYLOAD,2023-09-17 16:30:52,15.08856389,0.0001252,53.2189,42.1984,71.6117,288.5011,0.00030089,4.506e-05,0.0,0 STARLINK-4782,1 53933U 22119AZ  23260.68810426  .00004506  00000-0  30089-3 0  9994,2 53933  53.2189  42.1984 0001252  71.6117 288.5011 15.08856389 55079,6917.83,95.437,540.561,538.829,0.0
53933.0,STARLINK-4782,PAYLOAD,2023-09-18 02:03:11,15.08838734,0.0001472,53.2184,40.4126,76.2694,283.8462,1.3922e-05,-6.6e-07,0.0,0 STARLINK-4782,1 53933U 22119AZ  23261.08555141 -.00000066  00000-0  13922-4 0  9995,2 53933  53.2184  40.4126 0001472  76.2694 283.8462 15.08838734 55137,6917.884,95.438,540.768,538.731,0.0
53933.0,STARLINK-4782,PAYLOAD,2023-09-18 13:10:53,15.08839905,0.0001326,53.2192,38.3331,86.4007,273.7137,0.00010038,1.31e-05,0.0,0 STARLINK-4782,1 53933U 22119AZ  23261.54923176  .00001310  00000-0  10038-3 0  9999,2 53933  53.2192  38.3331 0001326  86.4007 273.7137 15.08839905 55621,6917.881,95.438,540.663,538.828,0.0
53933.0,STARLINK-4782,PAYLOAD,2023-09-18 16:21:39,15.08843238,0.000133,53.2194,37.7388,86.4225,273.6919,0.00022194,3.246e-05,0.0,0 STARLINK-4782,1 53933U 22119AZ  23261.68171030  .00003246  00000-0  22194-3 0  9994,2 53933  53.2194  37.7388 0001330  86.4225 273.6919 15.08843238 55648,6917.87,95.437,540.656,538.815,0.0
53933.0,STARLINK-4782,PAYLOAD,2023-09-19 09:50:54,15.08849752,0.0001322,53.2191,34.468,90.4935,269.6208,0.00063239,9.794e-05,0.0,0 STARLINK-4782,1 53933U 22119AZ  23262.41034984  .00009794  00000-0  63239-3 0  9991,2 53933  53.2191  34.4680 0001322  90.4935 269.6208 15.08849752 55337,6917.851,95.437,540.63,538.801,0.0
53933.0,STARLINK-4782,PAYLOAD,2023-09-19 17:47:49,15.08870975,0.0001345,53.2192,32.9817,92.6259,267.4887,0.0010809,0.00016971,0.0,0 STARLINK-4782,1 53933U 22119AZ  23262.74154252  .00016971  00000-0  10809-2 0  9997,2 53933  53.2192  32.9817 0001345  92.6259 267.4887 15.08870975 55386,6917.786,95.436,540.581,538.72,0.0
53933.0,STARLINK-4782,PAYLOAD,2023-09-20 08:06:18,15.08831421,0.0001739,53.2185,30.3058,81.5855,278.5334,-8.9977e-05,-1.719e-05,0.0,0 STARLINK-4782,1 53933U 22119AZ  23263.33771439 -.00001719  00000-0 -89977-4 0  9995,2 53933  53.2185  30.3058 0001739  81.5855 278.5334 15.08831421 55476,6917.907,95.438,540.975,538.569,0.0
53933.0,STARLINK-4782,PAYLOAD,2023-09-20 14:27:51,15.08821155,0.0001268,53.2186,29.1162,73.7004,286.4128,-4.5834e-05,-1.017e-05,0.0,0 STARLINK-4782,1 53933U 22119AZ  23263.60267996 -.00001017  00000-0 -45834-4 0  9998,2 53933  53.2186  29.1162 0001268  73.7004 286.4128 15.08821155 55938,6917.938,95.439,540.68,538.926,0.0
53933.0,STARLINK-4782,PAYLOAD,2023-09-20 16:03:14,15.0882248,0.0001321,53.2189,28.8194,103.8232,256.2907,4.2533e-05,3.89e-06,0.0,0 STARLINK-4782,1 53933U 22119AZ  23263.66891979  .00000389  00000-0  42533-4 0  9990,2 53933  53.2189  28.8194 0001321 103.8232 256.2907 15.08822480 55943,6917.934,95.439,540.713,538.885,0.0
53933.0,STARLINK-4782,PAYLOAD,2023-09-21 09:32:29,15.08841177,0.0001156,53.2185,25.547,105.7879,254.3241,0.0010341,0.00016209,0.0,0 STARLINK-4782,1 53933U 22119AZ  23264.39756557  .00016209  00000-0  10341-2 0  9991,2 53933  53.2185  25.5470 0001156 105.7879 254.3241 15.08841177 55634,6917.877,95.437,540.541,538.942,0.0
53933.0,STARLINK-4782,PAYLOAD,2023-09-21 12:43:15,15.08848197,0.0001188,53.2185,24.9526,98.2621,261.8506,0.0012049,0.00018944,0.0,0 STARLINK-4782,1 53933U 22119AZ  23264.53004523  .00018944  00000-0  12049-2 0  9991,2 53933  53.2185  24.9526 0001188  98.2621 261.8506 15.08848197 56070,6917.855,95.437,540.542,538.898,0.0
53933.0,STARLINK-4782,PAYLOAD,2023-09-21 15:54:02,15.08854793,0.0001149,53.218,24.3575,97.2893,262.823,0.0012066,0.00018975,0.0,0 STARLINK-4782,1 53933U 22119AZ  23264.66252337  .00018975  00000-0  12066-2 0  9996,2 53933  53.2180  24.3575 0001149  97.2893 262.8230 15.08854793 56096,6917.835,95.437,540.495,538.905,0.0
53933.0,STARLINK-4782,PAYLOAD,2023-09-22 01:26:20,15.08854038,0.0001629,53.2174,22.5767,67.0183,293.0981,0.00072643,0.00011296,0.0,0 STARLINK-4782,1 53933U 22119AZ  23265.05996423  .00011296  00000-0  72643-3 0  9998,2 53933  53.2174  22.5767 0001629  67.0183 293.0981 15.08854038 55733,6917.837,95.437,540.829,538.576,0.0
53933.0,STARLINK-4782,PAYLOAD,2023-09-22 12:34:02,15.08852604,0.0001553,53.2177,20.4943,73.1467,286.9695,0.00042652,6.509e-05,0.0,0 STARLINK-4782,1 53933U 22119AZ  23265.52364180  .00006509  00000-0  42652-3 0  9997,2 53933  53.2177  20.4943 0001553  73.1467 286.9695 15.08852604 56223,6917.842,95.437,540.781,538.633,0.0
53933.0,STARLINK-4782,PAYLOAD,2023-09-22 14:09:25,15.08852716,0.0001437,53.2182,20.1965,76.105,284.0102,0.00033122,4.989e-05,0.0,0 STARLINK-4782,1 53933U 22119AZ  23265.58988070  .00004989  00000-0  33122-3 0  9995,2 53933  53.2182  20.1965 0001437  76.1050 284.0102 15.08852716 55812,6917.842,95.437,540.701,538.712,0.0
53933.0,STARLINK-4782,PAYLOAD,2023-09-22 18:55:34,15.08866874,0.0001196,53.2184,19.3004,106.9195,253.1929,0.00068396,0.00010622,0.0,0 STARLINK-4782,1 53933U 22119AZ  23265.78859325  .00010622  00000-0  68396-3 0  9999,2 53933  53.2184  19.3004 0001196 106.9195 253.1929 15.08866874 56266,6917.798,95.436,540.491,538.836,0.0
53933.0,STARLINK-4782,PAYLOAD,2023-09-23 12:24:49,15.08849766,0.0001231,53.2177,16.0325,82.9145,277.1987,0.00013577,1.874e-05,0.0,0 STARLINK-4782,1 53933U 22119AZ  23266.51723554  .00001874  00000-0  13577-3 0  9995,2 53933  53.2177  16.0325 0001231  82.9145 277.1987 15.08849766 55952,6917.851,95.437,540.567,538.864,0.0
53933.0,STARLINK-4782,PAYLOAD,2023-09-24 10:40:12,15.08841145,0.000102,53.2188,11.8679,82.5663,277.5445,0.00088842,0.0001388,0.0,0 STARLINK-4782,1 53933U 22119AZ  23267.44459476  .00013880  00000-0  88842-3 0  9994,2 53933  53.2188  11.8679 0001020  82.5663 277.5445 15.08841145 56098,6917.877,95.437,540.448,539.036,0.0
53933.0,STARLINK-4782,PAYLOAD,2023-09-24 13:50:59,15.08853188,0.0001336,53.2191,11.2729,99.904,260.2103,0.00068906,0.00010699,0.0,0 STARLINK-4782,1 53933U 22119AZ  23267.57707336  .00010699  00000-0  68906-3 0  9993,2 53933  53.2191  11.2729 0001336  99.9040 260.2103 15.08853188 56532,6917.84,95.437,540.629,538.781,0.0
